{"spaceTrack"{"CCSDS_OMM_VERS":"2.0","COMMENT":"GENERATED VIA SPACE-TRACK.ORG API","CREATION_DATE":"2021-01-26T06:26:10","ORIGINATOR":"18 SPCS","OBJECT_NAME":"STARLINK-1032","OBJECT_ID":"2019-074AA","CENTER_NAME":"EARTH","REF_FRAME":"TEME","TIME_SYSTEM":"UTC","MEAN_ELEMENT_THEORY":"SGP4","EPOCH":"2021-01-26T02:42:00.107136","MEAN_MOTION":15.06397429,"ECCENTRICITY":0.0002117,"INCLINATION":53.057,"RA_OF_ASC_NODE":314.9681,"ARG_OF_PERICENTER":65.846,"MEAN_ANOMALY":294.275,"EPHEMERIS_TYPE":0,"CLASSIFICATION_TYPE":"U","NORAD_CAT_ID":44737,"ELEMENT_SET_NO":999,"REV_AT_EPOCH":6700,"BSTAR":0.000071548,"MEAN_MOTION_DOT":0.00000784,"MEAN_MOTION_DDOT":0,"SEMIMAJOR_AXIS":6925.356,"PERIOD":95.592,"APOAPSIS":548.688,"PERIAPSIS":545.755,"OBJECT_TYPE":"PAYLOAD","RCS_SIZE":"LARGE","COUNTRY_CODE":"US","LAUNCH_DATE":"2019-11-11","SITE":"AFETR","DECAY_DATE":null,"DECAYED":0,"FILE":2939391,"GP_ID":170374851,"TLE_LINE0":"0 STARLINK-1032","TLE_LINE1":"1 44737U 19074AA  21026.11250124  .00000784  00000-0  71548-4 0  9991","TLE_LINE2":"2 44737  53.0570 314.9681 0002117  65.8460 294.2750 15.06397429 67007"},"version":"v1.0","launch":"5eb87d39ffd86e000604b37d","longitude":130,"latitude":26.474771916092674,"height_km":547.1632892085754,"velocity_kms":7.592727900705498,"id":"5eed7714096e590006985661"}
{"spaceTrack"{"CCSDS_OMM_VERS":"2.0","COMMENT":"GENERATED VIA SPACE-TRACK.ORG API","CREATION_DATE":"2021-01-26T06:26:10","ORIGINATOR":"18 SPCS","OBJECT_NAME":"STARLINK-1027","OBJECT_ID":"2019-074V","CENTER_NAME":"EARTH","REF_FRAME":"TEME","TIME_SYSTEM":"UTC","MEAN_ELEMENT_THEORY":"SGP4","EPOCH":"2021-01-26T01:54:09.819648","MEAN_MOTION":15.06423046,"ECCENTRICITY":0.0002419,"INCLINATION":53.0582,"RA_OF_ASC_NODE":315.1241,"ARG_OF_PERICENTER":70.4878,"MEAN_ANOMALY":289.6372,"EPHEMERIS_TYPE":0,"CLASSIFICATION_TYPE":"U","NORAD_CAT_ID":44732,"ELEMENT_SET_NO":999,"REV_AT_EPOCH":6699,"BSTAR":0.00011869,"MEAN_MOTION_DOT":0.00001488,"MEAN_MOTION_DDOT":0,"SEMIMAJOR_AXIS":6925.278,"PERIOD":95.591,"APOAPSIS":548.818,"PERIAPSIS":545.468,"OBJECT_TYPE":"PAYLOAD","RCS_SIZE":"LARGE","COUNTRY_CODE":"US","LAUNCH_DATE":"2019-11-11","SITE":"AFETR","DECAY_DATE":null,"DECAYED":0,"FILE":2939391,"GP_ID":170374841,"TLE_LINE0":"0 STARLINK-1027","TLE_LINE1":"1 44732U 19074V   21026.07928032  .00001488  00000-0  11869-3 0  9992","TLE_LINE2":"2 44732  53.0582 315.1241 0002419  70.4878 289.6372 15.06423046 66990"},"version":"v1.0","launch":"5eb87d39ffd86e000604b37d","longitude":94,"latitude":-26.973985637261418,"height_km":556.4272946041256,"velocity_kms":7.582622002177172,"id":"5eed7714096e590006985662"}
{"spaceTrack"{"CCSDS_OMM_VERS":"2.0","COMMENT":"GENERATED VIA SPACE-TRACK.ORG API","CREATION_DATE":"2021-01-26T02:30:00","ORIGINATOR":"18 SPCS","OBJECT_NAME":"STARLINK-1055","OBJECT_ID":"2019-074AZ","CENTER_NAME":"EARTH","REF_FRAME":"TEME","TIME_SYSTEM":"UTC","MEAN_ELEMENT_THEORY":"SGP4","EPOCH":"2021-01-25T20:33:07.739712","MEAN_MOTION":15.06395472,"ECCENTRICITY":0.000238,"INCLINATION":53.0604,"RA_OF_ASC_NODE":336.1272,"ARG_OF_PERICENTER":64.9462,"MEAN_ANOMALY":295.1773,"EPHEMERIS_TYPE":0,"CLASSIFICATION_TYPE":"U","NORAD_CAT_ID":44760,"ELEMENT_SET_NO":999,"REV_AT_EPOCH":6652,"BSTAR":0.000054154,"MEAN_MOTION_DOT":0.00000525,"MEAN_MOTION_DDOT":0,"SEMIMAJOR_AXIS":6925.362,"PERIOD":95.592,"APOAPSIS":548.876,"PERIAPSIS":545.579,"OBJECT_TYPE":"PAYLOAD","RCS_SIZE":"LARGE","COUNTRY_CODE":"US","LAUNCH_DATE":"2019-11-11","SITE":"AFETR","DECAY_DATE":null,"DECAYED":0,"FILE":2939303,"GP_ID":170371142,"TLE_LINE0":"0 STARLINK-1055","TLE_LINE1":"1 44760U 19074AZ  21025.85633958  .00000525  00000-0  54154-4 0  9994","TLE_LINE2":"2 44760  53.0604 336.1272 0002380  64.9462 295.1773 15.06395472 66524"},"version":"v1.0","launch":"5eb87d39ffd86e000604b37d","longitude":11,"latitude":-12.95924456158845,"height_km":550.4834286114592,"velocity_kms":7.587169339034308,"id":"5eed7714096e590006985663"}
{"spaceTrack"{"CCSDS_OMM_VERS":"2.0","COMMENT":"GENERATED VIA SPACE-TRACK.ORG API","CREATION_DATE":"2021-01-25T22:36:11","ORIGINATOR":"18 SPCS","OBJECT_NAME":"STARLINK-1038","OBJECT_ID":"2019-074AG","CENTER_NAME":"EARTH","REF_FRAME":"TEME","TIME_SYSTEM":"UTC","MEAN_ELEMENT_THEORY":"SGP4","EPOCH":"2021-01-25T13:44:24.856224","MEAN_MOTION":15.06397184,"ECCENTRICITY":0.0002649,"INCLINATION":53.0591,"RA_OF_ASC_NODE":337.4011,"ARG_OF_PERICENTER":62.3902,"MEAN_ANOMALY":297.7356,"EPHEMERIS_TYPE":0,"CLASSIFICATION_TYPE":"U","NORAD_CAT_ID":44743,"ELEMENT_SET_NO":999,"REV_AT_EPOCH":6664,"BSTAR":0.000087923,"MEAN_MOTION_DOT":0.00001028,"MEAN_MOTION_DDOT":0,"SEMIMAJOR_AXIS":6925.357,"PERIOD":95.592,"APOAPSIS":549.057,"PERIAPSIS":545.388,"OBJECT_TYPE":"PAYLOAD","RCS_SIZE":"LARGE","COUNTRY_CODE":"US","LAUNCH_DATE":"2019-11-11","SITE":"AFETR","DECAY_DATE":null,"DECAYED":0,"FILE":2939047,"GP_ID":170346557,"TLE_LINE0":"0 STARLINK-1038","TLE_LINE1":"1 44743U 19074AG  21025.57250991  .00001028  00000-0  87923-4 0  9995","TLE_LINE2":"2 44743  53.0591 337.4011 0002649  62.3902 297.7356 15.06397184 66644"},"version":"v1.0","launch":"5eb87d39ffd86e000604b37d","longitude":95,"latitude":52.795643396896075,"height_km":551.9434541991541,"velocity_kms":7.593136780518577,"id":"5eed7714096e590006985664"}
{"spaceTrack"{"CCSDS_OMM_VERS":"2.0","COMMENT":"GENERATED VIA SPACE-TRACK.ORG API","CREATION_DATE":"2021-01-26T02:30:00","ORIGINATOR":"18 SPCS","OBJECT_NAME":"STARLINK-1042","OBJECT_ID":"2019-074AL","CENTER_NAME":"EARTH","REF_FRAME":"TEME","TIME_SYSTEM":"UTC","MEAN_ELEMENT_THEORY":"SGP4","EPOCH":"2021-01-25T20:43:44.532768","MEAN_MOTION":15.06398384,"ECCENTRICITY":0.0002125,"INCLINATION":53.0582,"RA_OF_ASC_NODE":336.0867,"ARG_OF_PERICENTER":66.437,"MEAN_ANOMALY":293.6842,"EPHEMERIS_TYPE":0,"CLASSIFICATION_TYPE":"U","NORAD_CAT_ID":44747,"ELEMENT_SET_NO":999,"REV_AT_EPOCH":6652,"BSTAR":0.000051363,"MEAN_MOTION_DOT":0.00000483,"MEAN_MOTION_DDOT":0,"SEMIMAJOR_AXIS":6925.354,"PERIOD":95.592,"APOAPSIS":548.69,"PERIAPSIS":545.747,"OBJECT_TYPE":"PAYLOAD","RCS_SIZE":"LARGE","COUNTRY_CODE":"US","LAUNCH_DATE":"2019-11-11","SITE":"AFETR","DECAY_DATE":null,"DECAYED":0,"FILE":2939303,"GP_ID":170370887,"TLE_LINE0":"0 STARLINK-1042","TLE_LINE1":"1 44747U 19074AL  21025.86370987  .00000483  00000-0  51363-4 0  9992","TLE_LINE2":"2 44747  53.0582 336.0867 0002125  66.4370 293.6842 15.06398384 66520"},"version":"v1.0","launch":"5eb87d39ffd86e000604b37d","longitude":77,"latitude":-41.84426864125448,"height_km":561.9680116068484,"velocity_kms":7.57969594516192,"id":"5eed7714096e590006985665"}
{"spaceTrack"{"CCSDS_OMM_VERS":"2.0","COMMENT":"GENERATED VIA SPACE-TRACK.ORG API","CREATION_DATE":"2021-01-26T14:26:10","ORIGINATOR":"18 SPCS","OBJECT_NAME":"STARLINK-1031","OBJECT_ID":"2019-074Z","CENTER_NAME":"EARTH","REF_FRAME":"TEME","TIME_SYSTEM":"UTC","MEAN_ELEMENT_THEORY":"SGP4","EPOCH":"2021-01-26T11:59:18.920256","MEAN_MOTION":15.06403568,"ECCENTRICITY":0.0002409,"INCLINATION":53.0587,"RA_OF_ASC_NODE":313.2213,"ARG_OF_PERICENTER":70.0726,"MEAN_ANOMALY":290.0523,"EPHEMERIS_TYPE":0,"CLASSIFICATION_TYPE":"U","NORAD_CAT_ID":44736,"ELEMENT_SET_NO":999,"REV_AT_EPOCH":6706,"BSTAR":-5.5788e-7,"MEAN_MOTION_DOT":-0.0000029,"MEAN_MOTION_DDOT":0,"SEMIMAJOR_AXIS":6925.338,"PERIOD":95.592,"APOAPSIS":548.871,"PERIAPSIS":545.534,"OBJECT_TYPE":"PAYLOAD","RCS_SIZE":"LARGE","COUNTRY_CODE":"US","LAUNCH_DATE":"2019-11-11","SITE":"AFETR","DECAY_DATE":null,"DECAYED":0,"FILE":2940108,"GP_ID":170391407,"TLE_LINE0":"0 STARLINK-1031","TLE_LINE1":"1 44736U 19074Z   21026.49952454 -.00000290  00000-0 -55788-6 0  9990","TLE_LINE2":"2 44736  53.0587 313.2213 0002409  70.0726 290.0523 15.06403568 67064"},"version":"v1.0","launch":"5eb87d39ffd86e000604b37d","longitude":30,"latitude":53.024982666908514,"height_km":552.1950468991463,"velocity_kms":7.592905016401564,"id":"5eed7714096e590006985666"}
{"spaceTrack"{"CCSDS_OMM_VERS":"2.0","COMMENT":"GENERATED VIA SPACE-TRACK.ORG API","CREATION_DATE":"2021-01-26T06:26:10","ORIGINATOR":"18 SPCS","OBJECT_NAME":"STARLINK-1025","OBJECT_ID":"2019-074T","CENTER_NAME":"EARTH","REF_FRAME":"TEME","TIME_SYSTEM":"UTC","MEAN_ELEMENT_THEORY":"SGP4","EPOCH":"2021-01-25T23:59:26.241792","MEAN_MOTION":15.05587572,"ECCENTRICITY":0.0002055,"INCLINATION":53.0005,"RA_OF_ASC_NODE":295.4922,"ARG_OF_PERICENTER":75.1391,"MEAN_ANOMALY":284.9824,"EPHEMERIS_TYPE":0,"CLASSIFICATION_TYPE":"U","NORAD_CAT_ID":44730,"ELEMENT_SET_NO":999,"REV_AT_EPOCH":6726,"BSTAR":0.000053339,"MEAN_MOTION_DOT":0.00000498,"MEAN_MOTION_DDOT":0,"SEMIMAJOR_AXIS":6927.84,"PERIOD":95.644,"APOAPSIS":551.128,"PERIAPSIS":548.281,"OBJECT_TYPE":"PAYLOAD","RCS_SIZE":"LARGE","COUNTRY_CODE":"US","LAUNCH_DATE":"2019-11-11","SITE":"AFETR","DECAY_DATE":null,"DECAYED":0,"FILE":2939391,"GP_ID":170375341,"TLE_LINE0":"0 STARLINK-1025","TLE_LINE1":"1 44730U 19074T   21025.99960928  .00000498  00000-0  53339-4 0  9999","TLE_LINE2":"2 44730  53.0005 295.4922 0002055  75.1391 284.9824 15.05587572 67267"},"version":"v1.0","launch":"5eb87d39ffd86e000604b37d","longitude":133,"latitude":-50.765046240637744,"height_km":568.4929676733054,"velocity_kms":7.575928014908954,"id":"5eed7714096e590006985667"}
